SITRO-AIS 29            
1 59052U 24039B   24259.90014117  .00056474  00000+0  16633-2 0  9990
2 59052  97.3981 221.5680 0011357 243.9149 116.0926 15.34788118 30478
SITRO-AIS 30            
1 59053U 24039C   24259.90619318  .00053235  00000+0  15797-2 0  9997
2 59053  97.3979 221.5542 0011624 245.6427 114.3603 15.34564147 30464
SITRO-AIS 31            
1 59054U 24039D   24259.88946372  .00054959  00000+0  16186-2 0  9995
2 59054  97.3979 221.5780 0011370 245.1073 114.8989 15.34796774 30486
SITRO-AIS 33            
1 59055U 24039E   24259.93903188  .00056978  00000+0  16714-2 0  9990
2 59055  97.3982 221.6729 0011081 245.6263 114.3824 15.34915701 30486
SITRO-AIS 35            
1 59056U 24039F   24259.93421695  .00059875  00000+0  17545-2 0  9991
2 59056  97.3983 221.6752 0010919 245.3070 114.7037 15.34937487 30481
SITRO-AIS 32            
1 59057U 24039G   24259.88363871  .00055826  00000+0  16469-2 0  9993
2 59057  97.3983 221.5933 0011129 246.3776 113.6299 15.34742234 30471
SITRO-AIS 34            
1 59058U 24039H   24259.93980032  .00055419  00000+0  16246-2 0  9995
2 59058  97.3982 221.6737 0010947 245.6706 114.3394 15.34945609 30482
SITRO-AIS 36            
1 59059U 24039J   24259.92495961  .00053640  00000+0  15682-2 0  9994
2 59059  97.3983 221.6883 0010837 245.5400 114.4714 15.35040548 30480
SITRO-AIS 49            
1 59060U 24039K   24259.92945302  .00052041  00000+0  15276-2 0  9998
2 59060  97.3982 221.6824 0010879 245.0589 114.9524 15.34921017 30487
SITRO-AIS 50            
1 59061U 24039L   24259.90920128  .00056854  00000+0  16525-2 0  9990
2 59061  97.3982 221.7074 0010648 243.9385 116.0762 15.35210749 30482
SITRO-AIS 51            
1 59062U 24039M   24259.90870534  .00059109  00000+0  17160-2 0  9998
2 59062  97.3983 221.7073 0010644 244.3145 115.6999 15.35237015 30480
SITRO-AIS 52            
1 59063U 24039N   24259.89633368  .00058561  00000+0  16932-2 0  9996
2 59063  97.3983 221.7266 0010465 244.1919 115.8245 15.35369630 30488
SITRO-AIS 25            
1 59066U 24039R   24259.93403979  .00014709  00000+0  13560-2 0  9997
2 59066  95.3958 158.8567 0169102  31.4531 329.6667 14.84396510 29565
SITRO-AIS 26            
1 59067U 24039S   24259.93626933  .00013460  00000+0  12437-2 0  9990
2 59067  95.3958 158.8536 0169157  31.4915 329.6297 14.84315712 29562
SITRO-AIS 27            
1 59068U 24039T   24259.91589727  .00014340  00000+0  13190-2 0  9993
2 59068  95.3959 158.8775 0168672  31.2903 329.8223 14.84530831 29567
SITRO-AIS 28            
1 59071U 24039U   24259.91069023  .00014732  00000+0  13539-2 0  9991
2 59071  95.3960 158.8839 0168464  31.2815 329.8297 14.84583658 29561
GRBBETA                 
1 60237U 24128C   24259.58080525  .00009029  00000+0  77583-3 0  9992
2 60237  61.9936 287.3960 0017340 337.1085  22.9228 14.97910344 10133
OOV-CUBE (TUBSAT-30)    
1 60240U 24128F   24259.41013546  .00006196  00000+0  55000-3 0  9999
2 60240  61.9976 288.2583 0015323 327.7731  32.2420 14.97067231 10118
ROBUSTA-3A (MEDITERRAN*)
1 60243U 24128J   24259.82487014  .00013993  00000+0  12127-2 0  9997
2 60243  61.9908 286.8821 0016800 317.4813  42.4973 14.97255710 10176
BEIJING 1               
1 28890U 05043A   24259.88350667  .00001806  00000+0  36448-3 0  9996
2 28890  98.2108  22.1426 0015880 120.4185 239.8588 14.62564298  7161
HUANJING 1A (HJ-1A)     
1 33320U 08041A   24259.94785232  .00005833  00000+0  76239-3 0  9994
2 33320  97.6343 262.5258 0021918  76.6478 283.7176 14.80645722863688
HUANJING 1B (HJ-1B)     
1 33321U 08041B   24259.93815280  .00003933  00000+0  51036-3 0  9998
2 33321  97.6283 267.0255 0039672 118.2902 242.2323 14.80746353863710
YAOGAN-4                
1 33446U 08061A   24259.81902589  .00004833  00000+0  63825-3 0  9993
2 33446  97.8801 190.0114 0014748 358.4418   1.6746 14.80405456850967
DEIMOS-1                
1 35681U 09041A   24259.85381945  .00002568  00000+0  40107-3 0  9997
2 35681  97.6840  76.9548 0002757  91.9293 268.2232 14.73640533812666
UK-DMC 2                
1 35683U 09041C   24259.85799741  .00003836  00000+0  59366-3 0  9992
2 35683  97.7940  43.8580 0001267 101.0129 259.1222 14.73786059812319
DMC3-FM1                
1 40715U 15032A   24259.93115893  .00003099  00000+0  37803-3 0  9993
2 40715  97.7348 136.1378 0005880  12.3751 347.7606 14.84038684495036
DMC3-FM2                
1 40716U 15032B   24259.95355486  .00003115  00000+0  37974-3 0  9998
2 40716  97.7400 137.2898 0007855  12.5610 347.5799 14.84048418495032
DMC3-FM3                
1 40717U 15032C   24259.91630061  .00002734  00000+0  33473-3 0  9996
2 40717  97.7449 138.5721 0009203   8.2676 351.8689 14.83954532495036
NOAA 15                 
1 25338U 98030A   24259.92022783  .00000789  00000+0  34383-3 0  9993
2 25338  98.5646 285.1389 0011304  63.2670 296.9666 14.26709834370121
DMSP 5D-3 F16 (USA 172) 
1 28054U 03048A   24259.93126061  .00000733  00000+0  40895-3 0  9995
2 28054  99.0238 267.2643 0007858 149.3378 272.4827 14.14116773 79121
NOAA 18                 
1 28654U 05018A   24259.89926444  .00000754  00000+0  42503-3 0  9999
2 28654  98.8688 336.0926 0014659 162.6982 197.4693 14.13329541995984
METEOSAT-9 (MSG-2)      
1 28912U 05049B   24259.59756859  .00000124  00000+0  00000+0 0  9991
2 28912   7.8899  60.0762 0001513 183.3773  12.4447  1.00268184   594
EWS-G1 (GOES 13)        
1 29155U 06018A   24259.83961260 -.00000154  00000+0  00000+0 0  9993
2 29155   2.8567  84.1791 0066832 256.1826 140.8276  0.98906859 36930
DMSP 5D-3 F17 (USA 191) 
1 29522U 06050A   24259.93949604  .00000800  00000+0  43867-3 0  9995
2 29522  98.7460 268.6521 0011282  82.3050 277.9404 14.14572580922023
FENGYUN 3A              
1 32958U 08026A   24259.84330223  .00000776  00000+0  39088-3 0  9990
2 32958  98.6108 204.3716 0008895 163.6489 196.4976 14.19193403844701
NOAA 19                 
1 33591U 09005A   24259.93446636  .00000679  00000+0  38721-3 0  9993
2 33591  99.0384 316.6592 0014306  40.2104 320.0123 14.13119350804183
GOES 14                 
1 35491U 09033A   24259.63848458 -.00000073  00000+0  00000+0 0  9994
2 35491   0.0180 141.6050 0004120  20.4708 314.4693  1.00270198   185
DMSP 5D-3 F18 (USA 210) 
1 35951U 09057A   24259.89610411  .00001031  00000+0  56296-3 0  9991
2 35951  98.8242 234.0723 0009839 269.7358  90.2688 14.14272669769207
EWS-G2 (GOES 15)        
1 36411U 10008A   24259.88677233  .00000030  00000+0  00000+0 0  9991
2 36411   0.3727 274.7291 0005789 301.4076 159.7970  1.00269451 53237
COMS 1                  
1 36744U 10032A   24259.89771836 -.00000350  00000+0  00000+0 0  9998
2 36744   3.1788  83.4004 0000921  85.3051 277.9570  1.00272065 44688
FENGYUN 3B              
1 37214U 10059A   24259.97011757  .00000441  00000+0  25302-3 0  9994
2 37214  99.0504 289.3116 0021962 193.5755 280.9074 14.14567095717042
SUOMI NPP               
1 37849U 11061A   24259.82681222  .00000486  00000+0  25108-3 0  9999
2 37849  98.7255 196.4569 0001549  50.9824 309.1490 14.19577922667738
FENGYUN 2F              
1 38049U 12002A   24259.66680758  .00000023  00000+0  00000+0 0  9990
2 38049   5.9582  73.1121 0002226 123.8920  72.3767  0.99136881 46464
METEOSAT-10 (MSG-3)     
1 38552U 12035B   24259.87460906 -.00000011  00000+0  00000+0 0  9997
2 38552   3.1669  61.4658 0000490 224.2218  24.5852  1.00272868 44440
METOP-B                 
1 38771U 12049A   24259.90525463  .00000631  00000+0  30791-3 0  9990
2 38771  98.6192 315.0529 0001214 113.6583 246.4722 14.21510700622449
INSAT-3D                
1 39216U 13038B   24259.89771836 -.00000346  00000+0  00000+0 0  9999
2 39216   0.2634  92.6219 0001710  95.7201 259.7465  1.00272968 40669
FENGYUN 3C              
1 39260U 13052A   24259.95133736  .00000544  00000+0  29496-3 0  9995
2 39260  98.4352 254.7723 0012261  67.6246 292.6227 14.16282892568110
METEOR-M 2              
1 40069U 14037A   24259.93291708  .00000648  00000+0  31744-3 0  9994
2 40069  98.4446 250.1489 0007038  93.9082 266.2900 14.21060397528513
HIMAWARI-8              
1 40267U 14060A   24259.88660400 -.00000283  00000+0  00000+0 0  9996
2 40267   0.0049 142.9991 0000882  28.5446 283.6257  1.00270018 36344
FENGYUN 2G              
1 40367U 14090A   24259.89441779 -.00000308  00000+0  00000+0 0  9995
2 40367   4.0169  80.4519 0002571 160.1656 176.3574  1.00273973 35585
METEOSAT-11 (MSG-4)     
1 40732U 15034A   24259.91021868  .00000056  00000+0  00000+0 0  9995
2 40732   1.6018  70.6271 0001314 178.1290  83.5098  1.00273110   811
ELEKTRO-L 2             
1 41105U 15074A   24259.87165514 -.00000120  00000+0  00000+0 0  9999
2 41105   5.0673  78.3509 0002578 155.9325  60.3631  1.00272129 32095
INSAT-3DR               
1 41752U 16054A   24259.90118765 -.00000085  00000+0  00000+0 0  9996
2 41752   0.0533 101.3013 0012061 160.8034 131.6922  1.00271211 29407
HIMAWARI-9              
1 41836U 16064A   24259.88660400 -.00000282  00000+0  00000+0 0  9994
2 41836   0.0303 191.6878 0001006 350.9127 272.6727  1.00273073 28796
GOES 16                 
1 41866U 16071A   24259.85959508 -.00000256  00000+0  00000+0 0  9993
2 41866   0.0798 286.4739 0000227 297.9272   5.1639  1.00272811 28690
FENGYUN 4A              
1 41882U 16077A   24259.87896712 -.00000208  00000+0  00000+0 0  9993
2 41882   0.6817  85.8515 0008087 344.5799 328.0947  1.00274027 28515
CYGFM05                 
1 41884U 16078A   24259.88758382  .00020742  00000+0  69811-3 0  9990
2 41884  34.9642  85.8320 0012709 307.7467  52.2097 15.29805781429965
CYGFM04                 
1 41885U 16078B   24259.88537262  .00021910  00000+0  71586-3 0  9993
2 41885  34.9380  68.9644 0010579 329.2266  30.7829 15.30775772430060
